STARLINK-2022           
1 47643U 21012Z   24245.68939002 -.00004670  00000+0 -29493-3 0  9992
2 47643  53.0555  18.6195 0001258  64.4492 295.6627 15.06388871196767
